NORAD_CAT_ID,OBJECT_NAME,OBJECT_TYPE,EPOCH,MEAN_MOTION,ECCENTRICITY,INCLINATION,RA_OF_ASC_NODE,ARG_OF_PERICENTER,MEAN_ANOMALY,BSTAR,MEAN_MOTION_DOT,MEAN_MOTION_DDOT,TLE_LINE0,TLE_LINE1,TLE_LINE2,SEMIMAJOR_AXIS,PERIOD,APOGEE,PERIGEE,DECAYED
53709.0,STARLINK-4685,PAYLOAD,2022-10-14 22:00:00,15.73203801,0.0001546,53.2171,76.0465,79.1328,277.5385,1.5943e-05,1.618e-05,0.0,0 STARLINK-4685,1 53709U 22107K   22287.91667824  .00001618  00000-0  15943-4 0  9992,2 53709  53.2171  76.0465 0001546  79.1328 277.5385 15.73203801  1300,6727.884,91.533,350.789,348.709,0.0
53709.0,STARLINK-4685,PAYLOAD,2022-10-15 14:00:01,15.73280999,0.0001281999999999,53.214,72.7448,57.4872,117.1957,-0.00026767,-0.00038146,0.0,0 STARLINK-4685,1 53709U 22107K   22288.58334491 -.00038146  00000-0 -26767-3 0  9990,2 53709  53.2140  72.7448 0001282  57.4872 117.1957 15.73280999  1307,6727.6640000000025,91.528,350.392,348.667,0.0
53709.0,STARLINK-4685,PAYLOAD,2022-10-15 22:00:01,15.73444914,0.0001314,53.2155,71.0982,47.4553,216.2923,-0.0053782,-0.00702793,0.0,0 STARLINK-4685,1 53709U 22107K   22288.91668981 -.00702793  00000-0 -53782-2 0  9993,2 53709  53.2155  71.0982 0001314  47.4553 216.2923 15.73444914  6543,6727.196999999999,91.519,349.946,348.17800000000005,0.0
53709.0,STARLINK-4685,PAYLOAD,2022-10-16 14:00:01,15.73205623,0.0001431999999999,53.2137,67.7966,48.7466,32.6907,-0.00016103,-0.00023163,0.0,0 STARLINK-4685,1 53709U 22107K   22289.58334491 -.00023163  00000-0 -16103-3 0  9997,2 53709  53.2137  67.7966 0001432  48.7466  32.6907 15.73205623  1308,6727.879,91.533,350.708,348.781,0.0
53709.0,STARLINK-4685,PAYLOAD,2022-10-16 22:00:00,15.73176686,0.0001537,53.2131,66.1478,42.6462,127.6947,-0.00016852,-0.0002418,0.0,0 STARLINK-4685,1 53709U 22107K   22289.91667824 -.00024180  00000-0 -16852-3 0  9994,2 53709  53.2131  66.1478 0001537  42.6462 127.6947 15.73176686  6702,6727.962,91.535,350.861,348.793,0.0
53709.0,STARLINK-4685,PAYLOAD,2022-10-17 14:00:01,15.73251427,0.0001541999999999,53.2145,62.8485,44.4766,303.6448,-0.00011373,-0.00016586,0.0,0 STARLINK-4685,1 53709U 22107K   22290.58334491 -.00016586  00000-0 -11373-3 0  9994,2 53709  53.2145  62.8485 0001542  44.4766 303.6448 15.73251427  1301,6727.749,91.53,350.651,348.576,0.0
53709.0,STARLINK-4685,PAYLOAD,2022-10-17 22:00:00,15.73233683,0.0001669,53.2134,61.1988,38.2648,38.8158,-0.00034783,-0.00049224,0.0,0 STARLINK-4685,1 53709U 22107K   22290.91667824 -.00049224  00000-0 -34783-3 0  9995,2 53709  53.2134  61.1988 0001669  38.2648  38.8158 15.73233683  6864,6727.799,91.531,350.787,348.541,0.0
53709.0,STARLINK-4685,PAYLOAD,2022-10-18 14:00:01,15.73182304,0.0001889999999999,53.2136,57.8996,45.8039,209.1223,-0.00015306,-0.00022031,0.0,0 STARLINK-4685,1 53709U 22107K   22291.58334491 -.00022031  00000-0 -15306-3 0  9997,2 53709  53.2136  57.8996 0001890  45.8039 209.1223 15.73182304  1304,6727.946,91.534,351.082,348.539,0.0
53709.0,STARLINK-4685,PAYLOAD,2022-10-18 22:00:00,15.73283368,0.0001805,53.2145,56.2498,41.8638,302.0948,-0.00088912,-0.0012403,0.0,0 STARLINK-4685,1 53709U 22107K   22291.91667824 -.00124030  00000-0 -88912-3 0  9998,2 53709  53.2145  56.2498 0001805  41.8638 302.0948 15.73283368  7025,6727.656999999997,91.528,350.737,348.30800000000005,0.0
53709.0,STARLINK-4685,PAYLOAD,2022-10-19 14:00:01,15.73149325,0.0001859,53.2152,52.9506,41.2692,120.5717,0.0003887999999999,0.00054181,0.0,0 STARLINK-4685,1 53709U 22107K   22292.58334491  .00054181  00000-0  38880-3 0  9999,2 53709  53.2152  52.9506 0001859  41.2692 120.5717 15.73149325  7121,6728.04,91.536,351.155,348.654,0.0
53709.0,STARLINK-4685,PAYLOAD,2022-10-19 22:00:00,15.73264479,0.000196,53.2161,51.3022,41.0917,209.6153,-0.0010606,-0.00147312,0.0,0 STARLINK-4685,1 53709U 22107K   22292.91667824 -.00147312  00000-0 -10606-2 0  9991,2 53709  53.2161  51.3022 0001960  41.0917 209.6153 15.73264479  1303,6727.7109999999975,91.529,350.895,348.2580000000001,0.0
53709.0,STARLINK-4685,PAYLOAD,2022-10-20 06:00:00,15.73188696,0.0001662,53.2152,49.6496,38.4505,301.2118,0.00032677,0.00045467,0.0,0 STARLINK-4685,1 53709U 22107K   22293.25001157  .00045467  00000-0  32677-3 0  9999,2 53709  53.2152  49.6496 0001662  38.4505 301.2118 15.73188696  7234,6727.927,91.534,350.911,348.6740000000001,0.0
53709.0,STARLINK-4685,PAYLOAD,2022-10-20 14:00:01,15.73212782,0.0001814,53.215,48.002,29.9149,38.6703,-0.00043592,-0.00061391,0.0,0 STARLINK-4685,1 53709U 22107K   22293.58334491 -.00061391  00000-0 -43592-3 0  9999,2 53709  53.2150  48.0020 0001814  29.9149  38.6703 15.73212782  1303,6727.859,91.532,350.944,348.50300000000016,0.0
53709.0,STARLINK-4685,PAYLOAD,2022-10-20 22:00:00,15.73171545,0.0001950999999999,53.2153,46.3532,28.5777,128.9245,9.6712e-05,0.00012957,0.0,0 STARLINK-4685,1 53709U 22107K   22293.91667824  .00012957  00000-0  96712-4 0  9990,2 53709  53.2153  46.3532 0001951  28.5777 128.9245 15.73171545  1304,6727.976,91.535,351.154,348.529,0.0
53709.0,STARLINK-4685,PAYLOAD,2022-10-21 06:00:00,15.73156254,0.0001733999999999,53.215,44.7008,36.2926,210.1404,0.00076336,0.00107695,0.0,0 STARLINK-4685,1 53709U 22107K   22294.25001157  .00107695  00000-0  76336-3 0  9992,2 53709  53.2150  44.7008 0001734  36.2926 210.1404 15.73156254  7387,6728.02,91.536,351.052,348.718,0.0
53709.0,STARLINK-4685,PAYLOAD,2022-10-21 14:00:01,15.73258414,0.0001973,53.2156,43.054,30.3808,304.9681,-0.00046534,-0.0006559,0.0,0 STARLINK-4685,1 53709U 22107K   22294.58334491 -.00065590  00000-0 -46534-3 0  9994,2 53709  53.2156  43.0540 0001973  30.3808 304.9681 15.73258414  1301,6727.729,91.53,350.921,348.266,0.0
53709.0,STARLINK-4685,PAYLOAD,2022-10-21 22:00:00,15.73231708,0.000202,53.2152,41.4031,26.5557,37.7868,-0.00050252,-0.00070659,0.0,0 STARLINK-4685,1 53709U 22107K   22294.91667824 -.00070659  00000-0 -50252-3 0  9994,2 53709  53.2152  41.4031 0002020  26.5557  37.7868 15.73231708  7497,6727.805,91.531,351.029,348.311,0.0
53709.0,STARLINK-4685,PAYLOAD,2022-10-22 14:00:01,15.73182982,0.0002137,53.2152,38.1046,24.0851,218.113,0.00023018,0.00031784,0.0,0 STARLINK-4685,1 53709U 22107K   22295.58334491  .00031784  00000-0  23018-3 0  9993,2 53709  53.2152  38.1046 0002137  24.0851 218.1130 15.73182982  1305,6727.944,91.534,351.246,348.371,0.0
53709.0,STARLINK-4685,PAYLOAD,2022-10-22 22:00:00,15.73234503,0.0002089,53.2148,36.4544,20.7761,310.3604,1.071e-05,8.84e-06,0.0,0 STARLINK-4685,1 53709U 22107K   22295.91667824  .00000884  00000-0  10710-4 0  9992,2 53709  53.2148  36.4544 0002089  20.7761 310.3604 15.73234503  1301,6727.797,91.531,351.06699999999995,348.256,0.0
53709.0,STARLINK-4685,PAYLOAD,2022-10-23 08:00:01,15.7329206,0.0001989,53.2154,34.3915,24.9031,147.5056,-0.00019415,-0.00027889,0.0,0 STARLINK-4685,1 53709U 22107K   22296.33335648 -.00027889  00000-0 -19415-3 0  9991,2 53709  53.2154  34.3915 0001989  24.9031 147.5056 15.73292060  7715,6727.6330000000025,91.528,350.836,348.16,0.0
53709.0,STARLINK-4685,PAYLOAD,2022-10-23 14:00:01,15.7324407,0.0002251,53.2154,33.1559,24.0654,125.0373,9.4734e-05,0.0001272,0.0,0 STARLINK-4685,1 53709U 22107K   22296.58334491  .00012720  00000-0  94734-4 0  9997,2 53709  53.2154  33.1559 0002251  24.0654 125.0373 15.73244070  1301,6727.77,91.531,351.149,348.12,0.0
53709.0,STARLINK-4685,PAYLOAD,2022-10-23 22:00:00,15.732822400000002,0.0002223,53.2155,31.5055,20.6177,217.4675,-0.0010562999999999,-0.00146845,0.0,0 STARLINK-4685,1 53709U 22107K   22296.91667824 -.00146845  00000-0 -10563-2 0  9997,2 53709  53.2155  31.5055 0002223  20.6177 217.4675 15.73282240  1308,6727.661,91.528,351.021,348.03,0.0
53709.0,STARLINK-4685,PAYLOAD,2022-10-24 14:00:01,15.73087957,0.0002360999999999,53.2155,28.2076,16.4563,39.4579,0.00045356,0.00063213,0.0,0 STARLINK-4685,1 53709U 22107K   22297.58334491  .00063213  00000-0  45356-3 0  9996,2 53709  53.2155  28.2076 0002361  16.4563  39.4579 15.73087957  1302,6728.215,91.54,351.668,348.491,0.0
53709.0,STARLINK-4685,PAYLOAD,2022-10-24 22:00:00,15.73151676,0.0002307,53.2151,26.5572,16.1517,128.5748,0.00017393,0.0002381,0.0,0 STARLINK-4685,1 53709U 22107K   22297.91667824  .00023810  00000-0  17393-3 0  9991,2 53709  53.2151  26.5572 0002307  16.1517 128.5748 15.73151676  1304,6728.033,91.536,351.45,348.346,0.0
53709.0,STARLINK-4685,PAYLOAD,2022-10-25 14:00:01,15.732266,0.0002522,53.2155,23.2596,20.021,302.4921,-9.4968e-05,-0.00013945,0.0,0 STARLINK-4685,1 53709U 22107K   22298.58334491 -.00013945  00000-0 -94968-4 0  9990,2 53709  53.2155  23.2596 0002522  20.0210 302.4921 15.73226600  1307,6727.819,91.532,351.381,347.98800000000006,0.0
53709.0,STARLINK-4685,PAYLOAD,2022-10-25 22:00:01,15.73213543,0.0002508999999999,53.2156,21.6089,21.7117,29.8285,0.00012851,0.00017464,0.0,0 STARLINK-4685,1 53709U 22107K   22298.91668981  .00017464  00000-0  12851-3 0  9999,2 53709  53.2156  21.6089 0002509  21.7117  29.8285 15.73213543  8128,6727.857,91.532,351.41,348.034,0.0
53709.0,STARLINK-4685,PAYLOAD,2022-10-26 14:00:01,15.73211457,0.0002686999999999,53.2154,18.3111,19.0542,210.3093,0.00011089,0.00014978,0.0,0 STARLINK-4685,1 53709U 22107K   22299.58334491  .00014978  00000-0  11089-3 0  9998,2 53709  53.2154  18.3111 0002687  19.0542 210.3093 15.73211457  8221,6727.863,91.533,351.535,347.92,0.0
53709.0,STARLINK-4685,PAYLOAD,2022-10-26 22:00:00,15.73229735,0.0002487,53.2149,16.6602,15.2065,303.1079,-0.00046597,-0.00065604,0.0,0 STARLINK-4685,1 53709U 22107K   22299.91667824 -.00065604  00000-0 -46597-3 0  9990,2 53709  53.2149  16.6602 0002487  15.2065 303.1079 15.73229735  1302,6727.81,91.531,351.349,348.00199999999984,0.0
53709.0,STARLINK-4685,PAYLOAD,2022-10-27 08:00:01,15.7318908,0.000244,53.2151,14.5983,12.8544,146.6286,0.00024351,0.00033678,0.0,0 STARLINK-4685,1 53709U 22107K   22300.33334491  .00033678  00000-0  24351-3 0  9998,2 53709  53.2151  14.5983 0002440  12.8544 146.6286 15.73189080  8347,6727.926,91.534,351.43300000000005,348.15,0.0
